SAUDISAT 1C (SO-50)     
1 27607U 02058C   26198.56666565  .00000339  00000+0  58139-4 0  9992
2 27607  64.5519  34.9873 0074455 256.8352 102.4439 14.83100826268961
SAUDISAT 2              
1 28371U 04025F   26198.93899699  .00000090  00000+0  31108-4 0  9995
2 28371  98.5522 199.7176 0024227 199.5876 160.4393 14.56699089170221
SAUDISAT 3              
1 31118U 07012B   26198.85951686  .00000098  00000+0  23999-4 0  9990
2 31118  98.1468 149.2830 0015728 126.7753 233.4900 14.71441077 32252
PISAT                   
1 41784U 16059B   26198.93173285  .00000431  00000+0  81024-4 0  9995
2 41784  97.8192 198.0656 0030517 106.4756 253.9808 14.69032391524253
FLYING LAPTOP           
1 42831U 17042G   26198.91270994  .00002033  00000+0  16186-3 0  9991
2 42831  97.4820 353.2918 0019597  23.8192 336.3935 15.01324030491068
SALSAT                  
1 46495U 20068K   26198.94923409  .00004039  00000+0  14103-3 0  9997
2 46495  97.8860 203.8975 0009519 182.9906 177.1278 15.30194622320068
